CCSDS_OMM_VERS = 2.0
CREATION_DATE  = 
ORIGINATOR     = 

OBJECT_NAME    = SL-16 R/B
OBJECT_ID      = 1993-016B
CENTER_NAME    = EARTH
REF_FRAME      = TEME
TIME_SYSTEM    = UTC
MEAN_ELEMENT_THEORY = SGP/SGP4

EPOCH          = 2026-02-25T11:34:13.154880
MEAN_MOTION    = 14.15301000
ECCENTRICITY   = .00109903
INCLINATION    = 71.0046
RA_OF_ASC_NODE = 240.8220
ARG_OF_PERICENTER = 331.1212
MEAN_ANOMALY   = 28.9301

EPHEMERIS_TYPE = 0
CLASSIFICATION_TYPE = U
NORAD_CAT_ID   = 22566
ELEMENT_SET_NO = 999
REV_AT_EPOCH   = 70044
BSTAR          = .12427097E-3
MEAN_MOTION_DOT = .194E-5
MEAN_MOTION_DDOT = 0

CCSDS_OMM_VERS = 2.0
CREATION_DATE  = 
ORIGINATOR     = 

OBJECT_NAME    = COSMOS 2242
OBJECT_ID      = 1993-024A
CENTER_NAME    = EARTH
REF_FRAME      = TEME
TIME_SYSTEM    = UTC
MEAN_ELEMENT_THEORY = SGP/SGP4

EPOCH          = 2026-02-25T03:10:44.951808
MEAN_MOTION    = 14.96490434
ECCENTRICITY   = .00161951
INCLINATION    = 82.5166
RA_OF_ASC_NODE = 278.7297
ARG_OF_PERICENTER = 353.1336
MEAN_ANOMALY   = 6.9661

EPHEMERIS_TYPE = 0
CLASSIFICATION_TYPE = U
NORAD_CAT_ID   = 22626
ELEMENT_SET_NO = 999
REV_AT_EPOCH   = 77851
BSTAR          = .1372579E-3
MEAN_MOTION_DOT = .1588E-4
MEAN_MOTION_DDOT = 0

CCSDS_OMM_VERS = 2.0
CREATION_DATE  = 
ORIGINATOR     = 

OBJECT_NAME    = SL-16 R/B
OBJECT_ID      = 1993-059B
CENTER_NAME    = EARTH
REF_FRAME      = TEME
TIME_SYSTEM    = UTC
MEAN_ELEMENT_THEORY = SGP/SGP4

EPOCH          = 2026-02-25T09:46:49.176768
MEAN_MOTION    = 14.17229270
ECCENTRICITY   = .00189901
INCLINATION    = 70.9904
RA_OF_ASC_NODE = 37.0259
ARG_OF_PERICENTER = 233.4536
MEAN_ANOMALY   = 126.4840

EPHEMERIS_TYPE = 0
CLASSIFICATION_TYPE = U
NORAD_CAT_ID   = 22803
ELEMENT_SET_NO = 999
REV_AT_EPOCH   = 67779
BSTAR          = .15525585E-3
MEAN_MOTION_DOT = .266E-5
MEAN_MOTION_DDOT = 0

CCSDS_OMM_VERS = 2.0
CREATION_DATE  = 
ORIGINATOR     = 

OBJECT_NAME    = ARIANE 40 R/B
OBJECT_ID      = 1993-061H
CENTER_NAME    = EARTH
REF_FRAME      = TEME
TIME_SYSTEM    = UTC
MEAN_ELEMENT_THEORY = SGP/SGP4

EPOCH          = 2026-02-25T04:46:23.832480
MEAN_MOTION    = 14.32853377
ECCENTRICITY   = .00098712
INCLINATION    = 98.4944
RA_OF_ASC_NODE = 125.3315
ARG_OF_PERICENTER = 326.0872
MEAN_ANOMALY   = 33.9680

EPHEMERIS_TYPE = 0
CLASSIFICATION_TYPE = U
NORAD_CAT_ID   = 22830
ELEMENT_SET_NO = 999
REV_AT_EPOCH   = 69231
BSTAR          = .78772487E-4
MEAN_MOTION_DOT = .172E-5
MEAN_MOTION_DDOT = 0

CCSDS_OMM_VERS = 2.0
CREATION_DATE  = 
ORIGINATOR     = 

OBJECT_NAME    = COSMOS 2278
OBJECT_ID      = 1994-023A
CENTER_NAME    = EARTH
REF_FRAME      = TEME
TIME_SYSTEM    = UTC
MEAN_ELEMENT_THEORY = SGP/SGP4

EPOCH          = 2026-02-25T12:05:41.131392
MEAN_MOTION    = 14.14370340
ECCENTRICITY   = .00073865
INCLINATION    = 71.0529
RA_OF_ASC_NODE = 200.5899
ARG_OF_PERICENTER = 37.7290
MEAN_ANOMALY   = 322.4349

EPHEMERIS_TYPE = 0
CLASSIFICATION_TYPE = U
NORAD_CAT_ID   = 23087
ELEMENT_SET_NO = 999
REV_AT_EPOCH   = 64308
BSTAR          = .23211471E-3
MEAN_MOTION_DOT = .397E-5
MEAN_MOTION_DDOT = 0

CCSDS_OMM_VERS = 2.0
CREATION_DATE  = 
ORIGINATOR     = 

OBJECT_NAME    = SL-16 R/B
OBJECT_ID      = 1994-023B
CENTER_NAME    = EARTH
REF_FRAME      = TEME
TIME_SYSTEM    = UTC
MEAN_ELEMENT_THEORY = SGP/SGP4

EPOCH          = 2026-02-25T13:20:31.395552
MEAN_MOTION    = 14.15012742
ECCENTRICITY   = .0005283
INCLINATION    = 70.9989
RA_OF_ASC_NODE = 96.3714
ARG_OF_PERICENTER = 297.1927
MEAN_ANOMALY   = 62.8657

EPHEMERIS_TYPE = 0
CLASSIFICATION_TYPE = U
NORAD_CAT_ID   = 23088
ELEMENT_SET_NO = 999
REV_AT_EPOCH   = 64437
BSTAR          = .67992012E-4
MEAN_MOTION_DOT = .84E-6
MEAN_MOTION_DDOT = 0

CCSDS_OMM_VERS = 2.0
CREATION_DATE  = 
ORIGINATOR     = 

OBJECT_NAME    = SL-16 R/B
OBJECT_ID      = 1994-074B
CENTER_NAME    = EARTH
REF_FRAME      = TEME
TIME_SYSTEM    = UTC
MEAN_ELEMENT_THEORY = SGP/SGP4

EPOCH          = 2026-02-25T13:29:11.990976
MEAN_MOTION    = 14.79391440
ECCENTRICITY   = .00051409
INCLINATION    = 97.7126
RA_OF_ASC_NODE = 87.8700
ARG_OF_PERICENTER = 258.3404
MEAN_ANOMALY   = 219.8070

EPHEMERIS_TYPE = 0
CLASSIFICATION_TYPE = U
NORAD_CAT_ID   = 23343
ELEMENT_SET_NO = 999
REV_AT_EPOCH   = 68545
BSTAR          = .65470539E-4
MEAN_MOTION_DOT = .439E-5
MEAN_MOTION_DDOT = 0

CCSDS_OMM_VERS = 2.0
CREATION_DATE  = 
ORIGINATOR     = 

OBJECT_NAME    = SL-16 R/B
OBJECT_ID      = 1994-077B
CENTER_NAME    = EARTH
REF_FRAME      = TEME
TIME_SYSTEM    = UTC
MEAN_ELEMENT_THEORY = SGP/SGP4

EPOCH          = 2026-02-25T07:55:34.550400
MEAN_MOTION    = 14.15563959
ECCENTRICITY   = .00037013
INCLINATION    = 70.9847
RA_OF_ASC_NODE = 18.4885
ARG_OF_PERICENTER = 226.5465
MEAN_ANOMALY   = 133.5351

EPHEMERIS_TYPE = 0
CLASSIFICATION_TYPE = U
NORAD_CAT_ID   = 23405
ELEMENT_SET_NO = 999
REV_AT_EPOCH   = 61448
BSTAR          = -.34941282E-4
MEAN_MOTION_DOT = -.116E-5
MEAN_MOTION_DDOT = 0

CCSDS_OMM_VERS = 2.0
CREATION_DATE  = 
ORIGINATOR     = 

OBJECT_NAME    = ARIANE 40+ R/B
OBJECT_ID      = 1995-021B
CENTER_NAME    = EARTH
REF_FRAME      = TEME
TIME_SYSTEM    = UTC
MEAN_ELEMENT_THEORY = SGP/SGP4

EPOCH          = 2026-02-25T05:40:01.349472
MEAN_MOTION    = 14.39762245
ECCENTRICITY   = .0007077
INCLINATION    = 98.4523
RA_OF_ASC_NODE = 127.8857
ARG_OF_PERICENTER = 170.0389
MEAN_ANOMALY   = 241.0517

EPHEMERIS_TYPE = 0
CLASSIFICATION_TYPE = U
NORAD_CAT_ID   = 23561
ELEMENT_SET_NO = 999
REV_AT_EPOCH   = 61745
BSTAR          = .1017E-3
MEAN_MOTION_DOT = .275E-5
MEAN_MOTION_DDOT = 0

CCSDS_OMM_VERS = 2.0
CREATION_DATE  = 
ORIGINATOR     = 

OBJECT_NAME    = SL-16 R/B
OBJECT_ID      = 1995-058B
CENTER_NAME    = EARTH
REF_FRAME      = TEME
TIME_SYSTEM    = UTC
MEAN_ELEMENT_THEORY = SGP/SGP4

EPOCH          = 2026-02-25T13:10:02.416512
MEAN_MOTION    = 14.15493761
ECCENTRICITY   = .00111604
INCLINATION    = 71.0205
RA_OF_ASC_NODE = 205.7429
ARG_OF_PERICENTER = 147.3880
MEAN_ANOMALY   = 212.7934

EPHEMERIS_TYPE = 0
CLASSIFICATION_TYPE = U
NORAD_CAT_ID   = 23705
ELEMENT_SET_NO = 999
REV_AT_EPOCH   = 56613
BSTAR          = -.97450374E-4
MEAN_MOTION_DOT = -.238E-5
MEAN_MOTION_DDOT = 0

CCSDS_OMM_VERS = 2.0
CREATION_DATE  = 
ORIGINATOR     = 

OBJECT_NAME    = SL-16 R/B
OBJECT_ID      = 1996-051B
CENTER_NAME    = EARTH
REF_FRAME      = TEME
TIME_SYSTEM    = UTC
MEAN_ELEMENT_THEORY = SGP/SGP4

EPOCH          = 2026-02-25T11:44:08.260800
MEAN_MOTION    = 14.12412081
ECCENTRICITY   = .00161753
INCLINATION    = 70.7588
RA_OF_ASC_NODE = 201.0615
ARG_OF_PERICENTER = 165.7208
MEAN_ANOMALY   = 194.4372

EPHEMERIS_TYPE = 0
CLASSIFICATION_TYPE = U
NORAD_CAT_ID   = 24298
ELEMENT_SET_NO = 999
REV_AT_EPOCH   = 51992
BSTAR          = .75651182E-4
MEAN_MOTION_DOT = .91E-6
MEAN_MOTION_DDOT = 0

CCSDS_OMM_VERS = 2.0
CREATION_DATE  = 
ORIGINATOR     = 

OBJECT_NAME    = ORBVIEW 2 (SEASTAR)
OBJECT_ID      = 1997-037A
CENTER_NAME    = EARTH
REF_FRAME      = TEME
TIME_SYSTEM    = UTC
MEAN_ELEMENT_THEORY = SGP/SGP4

EPOCH          = 2026-02-25T10:17:53.499552
MEAN_MOTION    = 14.35483973
ECCENTRICITY   = .00032115
INCLINATION    = 98.8546
RA_OF_ASC_NODE = 220.4175
ARG_OF_PERICENTER = 96.6509
MEAN_ANOMALY   = 263.5041

EPHEMERIS_TYPE = 0
CLASSIFICATION_TYPE = U
NORAD_CAT_ID   = 24883
ELEMENT_SET_NO = 999
REV_AT_EPOCH   = 50671
BSTAR          = .11593694E-3
MEAN_MOTION_DOT = .287E-5
MEAN_MOTION_DDOT = 0

